[
    {
        "Altitude(m)": 607911.0075858568,
        "Argument of Periapsis(deg)": 0.0,
        "Eccentricity": 0.0,
        "Inclination(deg)": 60.0,
        "Latitude(deg)": -14.292936040919537,
        "Longitude(deg)": -171.55737466783825,
        "Mean Anomaly(deg)": 196.36359999999996,
        "RAAN(deg)": 100.0,
        "Satellite Name": "Test1 452",
        "Satellite Number": 452,
        "Semi-Major Axis(m)": 6980739.136638005,
        "Time(s)": 0
    },
    {
        "Altitude(m)": 608060.2412120121,
        "Argument of Periapsis(deg)": 0.00010418945913296404,
        "Eccentricity": 0.0,
        "Inclination(deg)": 60.0,
        "Latitude(deg)": -14.826597887145951,
        "Longitude(deg)": -171.268766104168,
        "Mean Anomaly(deg)": 196.9837061454618,
        "RAAN(deg)": 99.99957995086025,
        "Satellite Name": "Test1 452",
        "Satellite Number": 452,
        "Semi-Major Axis(m)": 6980739.136638005,
        "Time(s)": 10
    },
    {
        "Altitude(m)": 608211.9050506913,
        "Argument of Periapsis(deg)": 0.0002083789182659281,
        "Eccentricity": 0.0,
        "Inclination(deg)": 60.0,
        "Latitude(deg)": -15.359743516671484,
        "Longitude(deg)": -170.97854875381418,
        "Mean Anomaly(deg)": 197.60381229092366,
        "RAAN(deg)": 99.99915990172052,
        "Satellite Name": "Test1 452",
        "Satellite Number": 452,
        "Semi-Major Axis(m)": 6980739.136638005,
        "Time(s)": 20
    },
    {
        "Altitude(m)": 608365.9510204688,
        "Argument of Periapsis(deg)": 0.00031256837739889213,
        "Eccentricity": 0.0,
        "Inclination(deg)": 60.0,
        "Latitude(deg)": -15.892351720443713,
        "Longitude(deg)": -170.68665514938166,
        "Mean Anomaly(deg)": 198.2239184363855,
        "RAAN(deg)": 99.99873985258077,
        "Satellite Name": "Test1 452",
        "Satellite Number": 452,
        "Semi-Major Axis(m)": 6980739.136638005,
        "Time(s)": 30
    },
    {
        "Altitude(m)": 608522.3298423701,
        "Argument of Periapsis(deg)": 0.0004167578365318562,
        "Eccentricity": 0.0,
        "Inclination(deg)": 60.0,
        "Latitude(deg)": -16.42440095715275,
        "Longitude(deg)": -170.39301630446403,
        "Mean Anomaly(deg)": 198.8440245818473,
        "RAAN(deg)": 99.99831980344103,
        "Satellite Name": "Test1 452",
        "Satellite Number": 452,
        "Semi-Major Axis(m)": 6980739.136638005,
        "Time(s)": 40
    },
    {
        "Altitude(m)": 608680.9910611967,
        "Argument of Periapsis(deg)": 0.0005209472956648203,
        "Eccentricity": 0.0,
        "Inclination(deg)": 60.0,
        "Latitude(deg)": -16.955869337208888,
        "Longitude(deg)": -170.09756267831432,
        "Mean Anomaly(deg)": 199.4641307273092,
        "RAAN(deg)": 99.99789975430129,
        "Satellite Name": "Test1 452",
        "Satellite Number": 452,
        "Semi-Major Axis(m)": 6980739.136638005,
        "Time(s)": 50
    },
    {
        "Altitude(m)": 608841.8830673773,
        "Argument of Periapsis(deg)": 0.0006251367547977843,
        "Eccentricity": 0.0,
        "Inclination(deg)": 60.0,
        "Latitude(deg)": -17.486734606241995,
        "Longitude(deg)": -169.80022362680484,
        "Mean Anomaly(deg)": 200.08423687277096,
        "RAAN(deg)": 99.99747970516155,
        "Satellite Name": "Test1 452",
        "Satellite Number": 452,
        "Semi-Major Axis(m)": 6980739.136638005,
        "Time(s)": 60
    },
    {
        "Altitude(m)": 609004.9531194048,
        "Argument of Periapsis(deg)": 0.0007293262139307483,
        "Eccentricity": 0.0,
        "Inclination(deg)": 60.0,
        "Latitude(deg)": -18.016974128098557,
        "Longitude(deg)": -169.50092685252366,
        "Mean Anomaly(deg)": 200.7043430182328,
        "RAAN(deg)": 99.9970596560218,
        "Satellite Name": "Test1 452",
        "Satellite Number": 452,
        "Semi-Major Axis(m)": 6980739.136638005,
        "Time(s)": 70
    },
    {
        "Altitude(m)": 609170.1473667804,
        "Argument of Periapsis(deg)": 0.0008335156730637124,
        "Eccentricity": 0.0,
        "Inclination(deg)": 60.0,
        "Latitude(deg)": -18.546564867307072,
        "Longitude(deg)": -169.19959936685936,
        "Mean Anomaly(deg)": 201.32444916369465,
        "RAAN(deg)": 99.99663960688206,
        "Satellite Name": "Test1 452",
        "Satellite Number": 452,
        "Semi-Major Axis(m)": 6980739.136638005,
        "Time(s)": 80
    },
    {
        "Altitude(m)": 609337.4108735049,
        "Argument of Periapsis(deg)": 0.0009377051321966765,
        "Eccentricity": 0.0,
        "Inclination(deg)": 60.0,
        "Latitude(deg)": -19.075483370995347,
        "Longitude(deg)": -168.8961669383046,
        "Mean Anomaly(deg)": 201.94455530915644,
        "RAAN(deg)": 99.99621955774232,
        "Satellite Name": "Test1 452",
        "Satellite Number": 452,
        "Semi-Major Axis(m)": 6980739.136638005,
        "Time(s)": 90
    },
    {
        "Altitude(m)": 609506.6876420936,
        "Argument of Periapsis(deg)": 0.0010418945913296407,
        "Eccentricity": 0.0,
        "Inclination(deg)": 60.0,
        "Latitude(deg)": -19.603705750231047,
        "Longitude(deg)": -168.59055353982998,
        "Mean Anomaly(deg)": 202.5646614546183,
        "RAAN(deg)": 99.99579950860257,
        "Satellite Name": "Test1 452",
        "Satellite Number": 452,
        "Semi-Major Axis(m)": 6980739.136638005,
        "Time(s)": 100
    },
    {
        "Altitude(m)": 609677.9206380708,
        "Argument of Periapsis(deg)": 0.0011460840504626045,
        "Eccentricity": 0.0,
        "Inclination(deg)": 60.0,
        "Latitude(deg)": -20.13120766075538,
        "Longitude(deg)": -168.2826823081861,
        "Mean Anomaly(deg)": 203.1847676000801,
        "RAAN(deg)": 99.99537945946282,
        "Satellite Name": "Test1 452",
        "Satellite Number": 452,
        "Semi-Major Axis(m)": 6980739.136638005,
        "Time(s)": 110
    },
    {
        "Altitude(m)": 609851.0518149639,
        "Argument of Periapsis(deg)": 0.0012502735095955685,
        "Eccentricity": 0.0,
        "Inclination(deg)": 60.0,
        "Latitude(deg)": -20.657964283091278,
        "Longitude(deg)": -167.9724749893664,
        "Mean Anomaly(deg)": 203.80487374554195,
        "RAAN(deg)": 99.99495941032309,
        "Satellite Name": "Test1 452",
        "Satellite Number": 452,
        "Semi-Major Axis(m)": 6980739.136638005,
        "Time(s)": 120
    },
    {
        "Altitude(m)": 610026.0221398094,
        "Argument of Periapsis(deg)": 0.0013544629687285324,
        "Eccentricity": 0.0,
        "Inclination(deg)": 60.0,
        "Latitude(deg)": -21.183950301992958,
        "Longitude(deg)": -167.6598513830924,
        "Mean Anomaly(deg)": 204.42497989100374,
        "RAAN(deg)": 99.99453936118334,
        "Satellite Name": "Test1 452",
        "Satellite Number": 452,
        "Semi-Major Axis(m)": 6980739.136638005,
        "Time(s)": 130
    },
    {
        "Altitude(m)": 610202.7716190564,
        "Argument of Periapsis(deg)": 0.0014586524278614966,
        "Eccentricity": 0.0,
        "Inclination(deg)": 60.0,
        "Latitude(deg)": -21.709139885208558,
        "Longitude(deg)": -167.34473029918055,
        "Mean Anomaly(deg)": 205.04508603646565,
        "RAAN(deg)": 99.99411931204361,
        "Satellite Name": "Test1 452",
        "Satellite Number": 452,
        "Semi-Major Axis(m)": 6980739.136638005,
        "Time(s)": 140
    },
    {
        "Altitude(m)": 610381.2393249702,
        "Argument of Periapsis(deg)": 0.0015628418869944607,
        "Eccentricity": 0.0,
        "Inclination(deg)": 60.0,
        "Latitude(deg)": -22.23350666152946,
        "Longitude(deg)": -167.0270290000366,
        "Mean Anomaly(deg)": 205.66519218192744,
        "RAAN(deg)": 99.99369926290386,
        "Satellite Name": "Test1 452",
        "Satellite Number": 452,
        "Semi-Major Axis(m)": 6980739.136638005,
        "Time(s)": 150
    },
    {
        "Altitude(m)": 610561.3634224655,
        "Argument of Periapsis(deg)": 0.0016670313461274247,
        "Eccentricity": 0.0,
        "Inclination(deg)": 60.0,
        "Latitude(deg)": -22.757023698096283,
        "Longitude(deg)": -166.70666264214248,
        "Mean Anomaly(deg)": 206.28529832738928,
        "RAAN(deg)": 99.99327921376411,
        "Satellite Name": "Test1 452",
        "Satellite Number": 452,
        "Semi-Major Axis(m)": 6980739.136638005,
        "Time(s)": 160
    },
    {
        "Altitude(m)": 610743.081196353,
        "Argument of Periapsis(deg)": 0.0017712208052603888,
        "Eccentricity": 0.0,
        "Inclination(deg)": 60.0,
        "Latitude(deg)": -23.27966347692515,
        "Longitude(deg)": -166.38354522940904,
        "Mean Anomaly(deg)": 206.90540447285113,
        "RAAN(deg)": 99.99285916462438,
        "Satellite Name": "Test1 452",
        "Satellite Number": 452,
        "Semi-Major Axis(m)": 6980739.136638005,
        "Time(s)": 170
    },
    {
        "Altitude(m)": 610926.3290789911,
        "Argument of Periapsis(deg)": 0.001875410264393353,
        "Eccentricity": 0.0,
        "Inclination(deg)": 60.0,
        "Latitude(deg)": -23.801397870631007,
        "Longitude(deg)": -166.05758905264778,
        "Mean Anomaly(deg)": 207.5255106183129,
        "RAAN(deg)": 99.99243911548463,
        "Satellite Name": "Test1 452",
        "Satellite Number": 452,
        "Semi-Major Axis(m)": 6980739.136638005,
        "Time(s)": 180
    },
    {
        "Altitude(m)": 611111.0426783432,
        "Argument of Periapsis(deg)": 0.0019795997235263173,
        "Eccentricity": 0.0,
        "Inclination(deg)": 60.0,
        "Latitude(deg)": -24.32219811731031,
        "Longitude(deg)": -165.7287041280415,
        "Mean Anomaly(deg)": 208.14561676377474,
        "RAAN(deg)": 99.9920190663449,
        "Satellite Name": "Test1 452",
        "Satellite Number": 452,
        "Semi-Major Axis(m)": 6980739.136638005,
        "Time(s)": 190
    }
]